IRIDIUM 63              
1 25286U 98021B   25174.44851118  .00000256  00000+0  80366-4 0  9993
2 25286  86.3974  79.5063 0002034  85.3055 274.8374 14.36550293424741
IRIDIUM 69              
1 25319U 98026A   25174.51139017  .00000309  00000+0  89975-4 0  9994
2 25319  86.3970  92.7515 0003498  42.6279 317.5191 14.40973741423970
IRIDIUM 71              
1 25320U 98026B   25174.51739296  .00000281  00000+0  81109-4 0  9991
2 25320  86.3968  87.4382 0004300  75.3874 284.7802 14.41162781424508
IRIDIUM 73              
1 25344U 98032C   25173.36933841  .00000369  00000+0  86665-4 0  9997
2 25344  86.4409  44.6161 0002108  69.2523 290.8908 14.51720548431316
IRIDIUM 82              
1 25467U 98051A   25174.23085447  .00014158  00000+0  40414-3 0  9993
2 25467  86.3668 106.7663 0081097 273.6847  85.5132 15.32573013424884
